[
  {
    "COMMENT": "GENERATED VIA SPACETRACK.ORG API",
    "ORIGINATOR": "18 SPCS",
    "NORAD_CAT_ID": "41240",
    "OBJECT_NAME": "JASON 3",
    "OBJECT_TYPE": "PAYLOAD",
    "CLASSIFICATION_TYPE": "U",
    "INTLDES": "16002A",
    "EPOCH": "2023-06-04 10:37:13",
    "EPOCH_MICROSECONDS": "232064",
    "MEAN_MOTION": "12.80928838",
    "ECCENTRICITY": "0.0007771",
    "INCLINATION": "66.0418",
    "RA_OF_ASC_NODE": "277.9855",
    "ARG_OF_PERICENTER": "270.8633",
    "MEAN_ANOMALY": "89.1492",
    "EPHEMERIS_TYPE": "0",
    "ELEMENT_SET_NO": "999",
    "REV_AT_EPOCH": "34513",
    "BSTAR": "0.00013652",
    "MEAN_MOTION_DOT": "-0.0000003",
    "MEAN_MOTION_DDOT": "0",
    "FILE": "3924689",
    "TLE_LINE0": "0 JASON 3",
    "TLE_LINE1": "1 41240U 16002A   23155.44251426 -.00000030  00000-0  13652-3 0  9998",
    "TLE_LINE2": "2 41240  66.0418 277.9855 0007771 270.8633  89.1492 12.80928838345130",
    "OBJECT_ID": "2016-002A",
    "OBJECT_NUMBER": "41240",
    "SEMIMAJOR_AXIS": "7715.875",
    "PERIOD": "112.418",
    "APOGEE": "1343.736",
    "PERIGEE": "1331.744",
    "DECAYED": "0"
  },
  {
    "COMMENT": "GENERATED VIA SPACETRACK.ORG API",
    "ORIGINATOR": "18 SPCS",
    "NORAD_CAT_ID": "41240",
    "OBJECT_NAME": "JASON 3",
    "OBJECT_TYPE": "PAYLOAD",
    "CLASSIFICATION_TYPE": "U",
    "INTLDES": "16002A",
    "EPOCH": "2023-06-04 14:22:04",
    "EPOCH_MICROSECONDS": "765728",
    "MEAN_MOTION": "12.80928854",
    "ECCENTRICITY": "0.0007775",
    "INCLINATION": "66.0418",
    "RA_OF_ASC_NODE": "277.6611",
    "ARG_OF_PERICENTER": "270.8608",
    "MEAN_ANOMALY": "89.1517",
    "EPHEMERIS_TYPE": "0",
    "ELEMENT_SET_NO": "999",
    "REV_AT_EPOCH": "34501",
    "BSTAR": "0.00015398",
    "MEAN_MOTION_DOT": "-0.00000026",
    "MEAN_MOTION_DDOT": "0",
    "FILE": "3924842",
    "TLE_LINE0": "0 JASON 3",
    "TLE_LINE1": "1 41240U 16002A   23155.59866627 -.00000026  00000-0  15398-3 0  9993",
    "TLE_LINE2": "2 41240  66.0418 277.6611 0007775 270.8608  89.1517 12.80928854345016",
    "OBJECT_ID": "2016-002A",
    "OBJECT_NUMBER": "41240",
    "SEMIMAJOR_AXIS": "7715.875",
    "PERIOD": "112.418",
    "APOGEE": "1343.739",
    "PERIGEE": "1331.741",
    "DECAYED": "0"
  },
  {
    "COMMENT": "GENERATED VIA SPACETRACK.ORG API",
    "ORIGINATOR": "18 SPCS",
    "NORAD_CAT_ID": "41240",
    "OBJECT_NAME": "JASON 3",
    "OBJECT_TYPE": "PAYLOAD",
    "CLASSIFICATION_TYPE": "U",
    "INTLDES": "16002A",
    "EPOCH": "2023-06-04 21:51:47",
    "EPOCH_MICROSECONDS": "832192",
    "MEAN_MOTION": "12.80928887",
    "ECCENTRICITY": "0.0007785",
    "INCLINATION": "66.0417",
    "RA_OF_ASC_NODE": "277.0125",
    "ARG_OF_PERICENTER": "270.8507",
    "MEAN_ANOMALY": "89.1616",
    "EPHEMERIS_TYPE": "0",
    "ELEMENT_SET_NO": "999",
    "REV_AT_EPOCH": "34505",
    "BSTAR": "0.00016748",
    "MEAN_MOTION_DOT": "-0.00000022",
    "MEAN_MOTION_DDOT": "0",
    "FILE": "3925173",
    "TLE_LINE0": "0 JASON 3",
    "TLE_LINE1": "1 41240U 16002A   23155.91097028 -.00000022  00000-0  16748-3 0  9996",
    "TLE_LINE2": "2 41240  66.0417 277.0125 0007785 270.8507  89.1616 12.80928887345058",
    "OBJECT_ID": "2016-002A",
    "OBJECT_NUMBER": "41240",
    "SEMIMAJOR_AXIS": "7715.875",
    "PERIOD": "112.418",
    "APOGEE": "1343.746",
    "PERIGEE": "1331.733",
    "DECAYED": "0"
  },
  {
    "COMMENT": "GENERATED VIA SPACETRACK.ORG API",
    "ORIGINATOR": "18 SPCS",
    "NORAD_CAT_ID": "41240",
    "OBJECT_NAME": "JASON 3",
    "OBJECT_TYPE": "PAYLOAD",
    "CLASSIFICATION_TYPE": "U",
    "INTLDES": "16002A",
    "EPOCH": "2023-06-05 10:58:48",
    "EPOCH_MICROSECONDS": "194400",
    "MEAN_MOTION": "12.8092895",
    "ECCENTRICITY": "0.0007793",
    "INCLINATION": "66.0418",
    "RA_OF_ASC_NODE": "275.8773",
    "ARG_OF_PERICENTER": "270.7974",
    "MEAN_ANOMALY": "89.2148",
    "EPHEMERIS_TYPE": "0",
    "ELEMENT_SET_NO": "999",
    "REV_AT_EPOCH": "34526",
    "BSTAR": "0.00017696",
    "MEAN_MOTION_DOT": "-0.0000002",
    "MEAN_MOTION_DDOT": "0",
    "FILE": "3925549",
    "TLE_LINE0": "0 JASON 3",
    "TLE_LINE1": "1 41240U 16002A   23156.45750225 -.00000020  00000-0  17696-3 0  9992",
    "TLE_LINE2": "2 41240  66.0418 275.8773 0007793 270.7974  89.2148 12.80928950345265",
    "OBJECT_ID": "2016-002A",
    "OBJECT_NUMBER": "41240",
    "SEMIMAJOR_AXIS": "7715.874",
    "PERIOD": "112.418",
    "APOGEE": "1343.752",
    "PERIGEE": "1331.726",
    "DECAYED": "0"
  },
  {
    "COMMENT": "GENERATED VIA SPACETRACK.ORG API",
    "ORIGINATOR": "18 SPCS",
    "NORAD_CAT_ID": "41240",
    "OBJECT_NAME": "JASON 3",
    "OBJECT_TYPE": "PAYLOAD",
    "CLASSIFICATION_TYPE": "U",
    "INTLDES": "16002A",
    "EPOCH": "2023-06-05 14:43:39",
    "EPOCH_MICROSECONDS": "728928",
    "MEAN_MOTION": "12.80928962",
    "ECCENTRICITY": "0.0007794",
    "INCLINATION": "66.0418",
    "RA_OF_ASC_NODE": "275.553",
    "ARG_OF_PERICENTER": "270.7967",
    "MEAN_ANOMALY": "89.2155",
    "EPHEMERIS_TYPE": "0",
    "ELEMENT_SET_NO": "999",
    "REV_AT_EPOCH": "34514",
    "BSTAR": "0.00019362",
    "MEAN_MOTION_DOT": "-0.00000016",
    "MEAN_MOTION_DDOT": "0",
    "FILE": "3925691",
    "TLE_LINE0": "0 JASON 3",
    "TLE_LINE1": "1 41240U 16002A   23156.61365427 -.00000016  00000-0  19362-3 0  9993",
    "TLE_LINE2": "2 41240  66.0418 275.5530 0007794 270.7967  89.2155 12.80928962345144",
    "OBJECT_ID": "2016-002A",
    "OBJECT_NUMBER": "41240",
    "SEMIMAJOR_AXIS": "7715.874",
    "PERIOD": "112.418",
    "APOGEE": "1343.753",
    "PERIGEE": "1331.726",
    "DECAYED": "0"
  },
  {
    "COMMENT": "GENERATED VIA SPACETRACK.ORG API",
    "ORIGINATOR": "18 SPCS",
    "NORAD_CAT_ID": "41240",
    "OBJECT_NAME": "JASON 3",
    "OBJECT_TYPE": "PAYLOAD",
    "CLASSIFICATION_TYPE": "U",
    "INTLDES": "16002A",
    "EPOCH": "2023-06-05 22:13:22",
    "EPOCH_MICROSECONDS": "795392",
    "MEAN_MOTION": "12.80928968",
    "ECCENTRICITY": "0.00078",
    "INCLINATION": "66.0418",
    "RA_OF_ASC_NODE": "274.9043",
    "ARG_OF_PERICENTER": "270.7916",
    "MEAN_ANOMALY": "89.2205",
    "EPHEMERIS_TYPE": "0",
    "ELEMENT_SET_NO": "999",
    "REV_AT_EPOCH": "34518",
    "BSTAR": "0.00020009",
    "MEAN_MOTION_DOT": "-0.00000015",
    "MEAN_MOTION_DDOT": "0",
    "FILE": "3925751",
    "TLE_LINE0": "0 JASON 3",
    "TLE_LINE1": "1 41240U 16002A   23156.92595828 -.00000015  00000-0  20009-3 0  9996",
    "TLE_LINE2": "2 41240  66.0418 274.9043 0007800 270.7916  89.2205 12.80928968345184",
    "OBJECT_ID": "2016-002A",
    "OBJECT_NUMBER": "41240",
    "SEMIMAJOR_AXIS": "7715.874",
    "PERIOD": "112.418",
    "APOGEE": "1343.758",
    "PERIGEE": "1331.721",
    "DECAYED": "0"
  },
  {
    "COMMENT": "GENERATED VIA SPACETRACK.ORG API",
    "ORIGINATOR": "18 SPCS",
    "NORAD_CAT_ID": "41240",
    "OBJECT_NAME": "JASON 3",
    "OBJECT_TYPE": "PAYLOAD",
    "CLASSIFICATION_TYPE": "U",
    "INTLDES": "16002A",
    "EPOCH": "2023-06-06 13:12:48",
    "EPOCH_MICROSECONDS": "922272",
    "MEAN_MOTION": "12.80929017",
    "ECCENTRICITY": "0.0007813",
    "INCLINATION": "66.0418",
    "RA_OF_ASC_NODE": "273.607",
    "ARG_OF_PERICENTER": "270.7226",
    "MEAN_ANOMALY": "89.2894",
    "EPHEMERIS_TYPE": "0",
    "ELEMENT_SET_NO": "999",
    "REV_AT_EPOCH": "34526",
    "BSTAR": "0.00020393",
    "MEAN_MOTION_DOT": "-0.00000014",
    "MEAN_MOTION_DDOT": "0",
    "FILE": "3926325",
    "TLE_LINE0": "0 JASON 3",
    "TLE_LINE1": "1 41240U 16002A   23157.55056623 -.00000014  00000-0  20393-3 0  9996",
    "TLE_LINE2": "2 41240  66.0418 273.6070 0007813 270.7226  89.2894 12.80929017345267",
    "OBJECT_ID": "2016-002A",
    "OBJECT_NUMBER": "41240",
    "SEMIMAJOR_AXIS": "7715.874",
    "PERIOD": "112.418",
    "APOGEE": "1343.768",
    "PERIGEE": "1331.711",
    "DECAYED": "0"
  },
  {
    "COMMENT": "GENERATED VIA SPACETRACK.ORG API",
    "ORIGINATOR": "18 SPCS",
    "NORAD_CAT_ID": "41240",
    "OBJECT_NAME": "JASON 3",
    "OBJECT_TYPE": "PAYLOAD",
    "CLASSIFICATION_TYPE": "U",
    "INTLDES": "16002A",
    "EPOCH": "2023-06-06 16:57:40",
    "EPOCH_MICROSECONDS": "455936",
    "MEAN_MOTION": "12.80929034",
    "ECCENTRICITY": "0.0007814",
    "INCLINATION": "66.0418",
    "RA_OF_ASC_NODE": "273.2827",
    "ARG_OF_PERICENTER": "270.7203",
    "MEAN_ANOMALY": "89.2917",
    "EPHEMERIS_TYPE": "0",
    "ELEMENT_SET_NO": "999",
    "REV_AT_EPOCH": "34542",
    "BSTAR": "0.00021987",
    "MEAN_MOTION_DOT": "-0.0000001",
    "MEAN_MOTION_DDOT": "0",
    "FILE": "3926413",
    "TLE_LINE0": "0 JASON 3",
    "TLE_LINE1": "1 41240U 16002A   23157.70671824 -.00000010  00000-0  21987-3 0  9995",
    "TLE_LINE2": "2 41240  66.0418 273.2827 0007814 270.7203  89.2917 12.80929034345422",
    "OBJECT_ID": "2016-002A",
    "OBJECT_NUMBER": "41240",
    "SEMIMAJOR_AXIS": "7715.874",
    "PERIOD": "112.418",
    "APOGEE": "1343.768",
    "PERIGEE": "1331.710",
    "DECAYED": "0"
  },
  {
    "COMMENT": "GENERATED VIA SPACETRACK.ORG API",
    "ORIGINATOR": "18 SPCS",
    "NORAD_CAT_ID": "41240",
    "OBJECT_NAME": "JASON 3",
    "OBJECT_TYPE": "PAYLOAD",
    "CLASSIFICATION_TYPE": "U",
    "INTLDES": "16002A",
    "EPOCH": "2023-06-06 20:42:31",
    "EPOCH_MICROSECONDS": "987008",
    "MEAN_MOTION": "12.80929051",
    "ECCENTRICITY": "0.0007817",
    "INCLINATION": "66.0418",
    "RA_OF_ASC_NODE": "272.9583",
    "ARG_OF_PERICENTER": "270.7192",
    "MEAN_ANOMALY": "89.2927",
    "EPHEMERIS_TYPE": "0",
    "ELEMENT_SET_NO": "999",
    "REV_AT_EPOCH": "34530",
    "BSTAR": "0.00022581",
    "MEAN_MOTION_DOT": "-0.00000009",
    "MEAN_MOTION_DDOT": "0",
    "FILE": "3926571",
    "TLE_LINE0": "0 JASON 3",
    "TLE_LINE1": "1 41240U 16002A   23157.86287022 -.00000009  00000-0  22581-3 0  9994",
    "TLE_LINE2": "2 41240  66.0418 272.9583 0007817 270.7192  89.2927 12.80929051345304",
    "OBJECT_ID": "2016-002A",
    "OBJECT_NUMBER": "41240",
    "SEMIMAJOR_AXIS": "7715.874",
    "PERIOD": "112.418",
    "APOGEE": "1343.770",
    "PERIGEE": "1331.707",
    "DECAYED": "0"
  }
]